[
  {
    "organization": "Longmont",
    "street": "CO",
    "state": "80501"
  },
  {
    "organization": "Margate",
    "street": "Florida",
    "state": "33063"
  },
  {
    "organization": "El Paso",
    "street": "TX",
    "county": "6982",
    "state": "79936"
  },
  {
    "organization": "AZ",
    "city": "85260",
    "state": "8847"
  },
  {
    "organization": "Houston",
    "street": "TX",
    "county": "4527",
    "state": "77079"
  },
  {
    "organization": "AZ",
    "city": "85260"
  },
  {
    "organization": "Norwalk",
    "street": "CT",
    "county": "1000",
    "state": "06851"
  },
  {
    "organization": "TX",
    "city": "75019"
  },
  {
    "organization": "GA",
    "city": "30124",
    "state": "8219"
  },
  {
    "organization": "Plainfield",
    "street": "Illinois",
    "county": "3890",
    "state": "60544"
  },
  {
    "organization": "Virginia Beach",
    "street": "VA",
    "county": "6369",
    "state": "23451"
  },
  {
    "name": "Maria J Mendoza",
    "street": "26 Dewitt Ave."
  },
  {
    "name": "Bob Ring",
    "street": "161 Regis Drive",
    "city": "Staten Island",
    "state": "NY",
    "zip": "10314"
  },
  {
    "name": "James Joseph Moley,Jr.",
    "street": "136 Third Street",
    "city": "Saint James",
    "state": "NY",
    "zip": "11780"
  },
  {
    "name": "Abraham Franks",
    "street": "1303 Fifth Street",
    "city": "Hiller",
    "state": "PA",
    "zip": "15444-9733"
  },
  {
    "name": "Alastair T. Crawford",
    "street": "115 West Front Street",
    "city": "Oil City",
    "state": "PA",
    "zip": "16301"
  },
  {
    "name": "David Allen Weidenhammer,Jr.",
    "street": "237 Chestnut Street",
    "city": "West Reading",
    "state": "PA",
    "zip": "19611"
  },
  {
    "name": "JOSEPH CANN ,SR",
    "street": "477 Toftrees Drive",
    "city": "Middletown",
    "state": "DE",
    "zip": "19709"
  },
  {
    "name": "Rhodes Taylor Carter",
    "street": "3321 Huntley Square Drive APT A1",
    "city": "Temple Hills",
    "state": "MD",
    "zip": "20748-6213"
  },
  {
    "name": "Wanda Kay Hood",
    "street": "583 Cayce Olin Dr",
    "city": "Rock Hill",
    "state": "SC",
    "zip": "29730-8976"
  },
  {
    "name": "Binh Lam",
    "street": "75 Chimney Walk Court",
    "city": "Suwanee",
    "state": "GA",
    "zip": "30024"
  },
  {
    "name": "Charity Lynn Patterson",
    "street": "182 Dallas Rd.",
    "city": "Dallas",
    "state": "GA",
    "zip": "30157"
  },
  {
    "name": "Quinton Roy McDaniel ,Sr",
    "street": "6156 Christopher Terrace",
    "city": "Rex",
    "state": "Georgia",
    "zip": "30273"
  },
  {
    "name": "Charles Henry Ray ,Jr.",
    "street": "2308 Dorminey Street",
    "city": "Tifton",
    "state": "GA",
    "zip": "31794"
  },
  {
    "name": "Lamar Thomas Fletcher",
    "street": "2448 Olson Lane",
    "city": "Jacksonville",
    "state": "FL",
    "zip": "32210"
  },
  {
    "name": "David Scherrep",
    "street": "12014 Cobblewood Lane North",
    "city": "Jacksonville",
    "state": "Florida",
    "zip": "32225"
  },
  {
    "name": "Rocky Dean Haynes Jr.",
    "street": "10216 Douglas Oaks Circle Apt. 301",
    "city": "Tampa",
    "state": "FL",
    "zip": "33610-8661"
  },
  {
    "name": "Svetoslav Viktorov Ivanov",
    "street": "342 Ospreys Landing Apt 2105",
    "city": "Naples",
    "state": "FL",
    "zip": "34104"
  },
  {
    "name": "Robert John Blase",
    "street": "8396 Jesolo Lane",
    "city": "Sarasota",
    "state": "Florida",
    "zip": "34238-4738"
  },
  {
    "name": "LaQuisha Harris",
    "street": "300 36th Ave NE",
    "city": "Center Point",
    "state": "AL",
    "zip": "35215-1412"
  },
  {
    "name": "Angela Rynette Thomas",
    "street": "7925 Berryhill Court, Apt. B",
    "city": "Montgomery",
    "state": "Alabama",
    "zip": "36117-7729"
  },
  {
    "name": "Charles Lee ,Jr.",
    "street": "127 Askew Ln",
    "city": "Atmore",
    "state": "AL",
    "zip": "36502"
  },
  {
    "name": "Brian Lane Bonner",
    "street": "824 Bonneville Drive",
    "city": "Mobile",
    "state": "AL",
    "zip": "36695"
  },
  {
    "name": "Leonard Beasley",
    "street": "319 TICKETT AVE",
    "city": "Greenwood",
    "state": "MS",
    "zip": "38930"
  },
  {
    "name": "Paul Logan Cardwell",
    "street": "305 Liberty Street",
    "city": "Franklin",
    "state": "KY",
    "zip": "42134"
  },
  {
    "name": "Gary R. Brown",
    "street": "5661 Seapine Rd.",
    "city": "Hilliard",
    "county": "Franklin",
    "state": "OH",
    "zip": "43026"
  },
  {
    "name": "Charles P Mercer",
    "street": "P.O. Box 763",
    "city": "London",
    "state": "OH",
    "zip": "43140"
  },
  {
    "name": "Lisa M Arebaugh",
    "street": "2602 E. Township Road 148",
    "city": "Tiffin",
    "state": "OH",
    "zip": "44883"
  },
  {
    "name": "Stephen L. Green Jr.",
    "street": "4201 Neuman Road",
    "city": "Saint Clair",
    "state": "MI",
    "zip": "48079"
  },
  {
    "name": "Daren McClelland, II",
    "street": "51074 Mott Apt #61",
    "city": "Canton",
    "state": "MI",
    "zip": "48188"
  },
  {
    "name": "Annette Wilson",
    "street": "16683 Robson St.",
    "city": "Detroit",
    "state": "MI",
    "zip": "48235-4519"
  },
  {
    "name": "Patrick Allen McClure",
    "street": "8661 E Butterfly Ln",
    "city": "White Cloud",
    "state": "MI",
    "zip": "49349-9575"
  },
  {
    "name": "Jeremy L. Wehmeyer",
    "street": "227 2nd St",
    "city": "Atalissa",
    "state": "IA",
    "zip": "52720"
  },
  {
    "name": "Orlando Hernandez, Sr.",
    "street": "7619 W Glenbrook Rd",
    "city": "Milwaukee",
    "state": "WI",
    "zip": "53223-1006"
  },
  {
    "name": "Cinthia Ivana Fonseca",
    "street": "1684 Wicke Ave",
    "city": "Des Plaines",
    "state": "IL",
    "zip": "60018-1715"
  },
  {
    "name": "Jannely Montes",
    "street": "3060 Arthur Ct APT# A3",
    "city": "Waukegan",
    "state": "IL",
    "zip": "60085"
  },
  {
    "name": "Sonji S Dixon-McCoy",
    "street": "1222 East 146th Street",
    "city": "Dolton",
    "state": "Illinois",
    "zip": "60419"
  },
  {
    "name": "Everardo Rubio Jr.",
    "street": "4520 Joliet Ave",
    "city": "Lyons",
    "state": "IL",
    "zip": "60534"
  },
  {
    "name": "Elena Jackson",
    "street": "716 Blossom Ct.",
    "city": "Naperville",
    "state": "IL",
    "zip": "60540"
  },
  {
    "name": "Ashley Bond",
    "street": "7717 S Kingston Ave Apt 3",
    "city": "Chicago",
    "state": "IL",
    "zip": "60649"
  },
  {
    "name": "Shannon Lee Tucker",
    "street": "2560 E Olive St",
    "city": "Decatur",
    "county": "Macon",
    "state": "IL",
    "zip": "62526-5349"
  },
  {
    "name": "Katherine Elaine Geter",
    "street": "4650 S. Pinnacle Hills Pkwy 206",
    "city": "Rogers",
    "state": "Arkansas",
    "zip": "72758"
  },
  {
    "name": "Adam Ray Richardson",
    "street": "P.O. Box 682",
    "city": "Waldron",
    "state": "AR",
    "zip": "72958"
  },
  {
    "name": "Hilda Flores",
    "street": "1509 Alberbrook Pl",
    "city": "Garland",
    "state": "TX",
    "zip": "75040-5551"
  },
  {
    "name": "Shirley Merritt Willaby",
    "street": "104 Joshua Tree Ct",
    "city": "Forney",
    "state": "Texas",
    "zip": "75126-0200"
  },
  {
    "name": "Ralphel Johnson",
    "street": "20611 Beigewood Dr",
    "city": "Humble",
    "county": "Harris",
    "state": "TX",
    "zip": "77338"
  },
  {
    "name": "Stephen Guynes",
    "street": "2507 Dry Wind Court",
    "city": "Humble",
    "state": "TX",
    "zip": "77396"
  },
  {
    "name": "Sabrina Renfroe",
    "street": "15470 E. Temple Place",
    "city": "Aurora",
    "state": "Colorado",
    "zip": "80015"
  },
  {
    "name": "Steven Gustav Broman",
    "street": "11035 Grape Way",
    "city": "Thornton",
    "county": "Adams",
    "state": "Colorado",
    "zip": "80233"
  },
  {
    "name": "Robert Eugene Warren",
    "street": "1807 West 5000 South",
    "city": "Roy",
    "state": "UT",
    "zip": "84067"
  },
  {
    "name": "MANUEL VICTOR SOLIZ ,III",
    "street": "10525 W. MONTEROSA ST #5",
    "city": "PHOENIX",
    "state": "AZ",
    "zip": "85037-5824"
  },
  {
    "name": "SHERLYTAKYREE HICKSON",
    "street": "2706 S 257TH AVE",
    "city": "BUCKEYE",
    "state": "Arizona",
    "zip": "85326"
  },
  {
    "name": "COLIN ALLAN PARKER",
    "street": "1440 W. IRVINGTON RD.",
    "city": "TUCSON",
    "state": "Arizona",
    "zip": "85746-4100"
  },
  {
    "name": "Josefina Garcia Montes",
    "street": "12746 1/2 Kalnor Ave",
    "city": "Norwalk",
    "state": "CA",
    "zip": "90650"
  },
  {
    "name": "David Amundson",
    "street": "25363 Woodward Ave.",
    "city": "Lomita",
    "state": "California",
    "zip": "90717"
  },
  {
    "name": "Maria De Los Angeles Najera",
    "street": "10340 Canoga Ave, Apt 220",
    "city": "Chatsworth",
    "county": "Los Angeles",
    "state": "California",
    "zip": "91311-2281"
  },
  {
    "name": "Jose Gutierrez",
    "street": "PO BOX 7553",
    "city": "Redlands",
    "state": "CA",
    "zip": "92375-0553"
  },
  {
    "name": "Lourdes Veronica Castillo",
    "street": "63 S Garcia",
    "city": "Mendota",
    "state": "CA",
    "zip": "93640"
  },
  {
    "name": "Gary Ge",
    "street": "1992 Bowers Avenue",
    "city": "Santa Clara",
    "state": "CA",
    "zip": "95051-1860"
  },
  {
    "name": "Juan Carlos Ortiz",
    "street": "32 Kingfisher Drive",
    "city": "Watsonville",
    "state": "California",
    "zip": "95076"
  },
  {
    "name": "Arnulfo Hernandez Dacanay,",
    "street": "446 Capitol Village Circle",
    "city": "San Jose",
    "state": "CA",
    "zip": "95136"
  }
]